JY1SAT (JO-97)          
1 43803U 18099AX  26068.68634132  .00017774  00000+0  60804-3 0  9996
2 43803  97.4249 131.3625 0004723 256.6795 103.3919 15.30302628398390
STARLINK-31598          
1 59263U 24050K   26068.62846355 -.00000080  00000+0  94387-5 0  9991
2 59263  53.1619 181.6524 0001335  82.4699 277.6453 15.30183586110533
